[{"OBJECT_NAME":"STARLINK-5737","OBJECT_ID":"2023-020B","EPOCH":"2026-03-09T22:00:01.999584","MEAN_MOTION":15.1388219,"ECCENTRICITY":0.00010422,"INCLINATION":43.0006,"RA_OF_ASC_NODE":3.3868,"ARG_OF_PERICENTER":257.7243,"MEAN_ANOMALY":107.1398,"EPHEMERIS_TYPE":0,"CLASSIFICATION_TYPE":"U","NORAD_CAT_ID":55570,"ELEMENT_SET_NO":999,"REV_AT_EPOCH":577,"BSTAR":0.033208874,"MEAN_MOTION_DOT":0.00653406,"MEAN_MOTION_DDOT":0},{"OBJECT_NAME":"TIANYI C","OBJECT_ID":"2025-103C","EPOCH":"2026-03-09T22:37:19.466688","MEAN_MOTION":15.19353753,"ECCENTRICITY":0.00043402,"INCLINATION":97.3825,"RA_OF_ASC_NODE":142.8102,"ARG_OF_PERICENTER":135.1968,"MEAN_ANOMALY":224.9618,"EPHEMERIS_TYPE":0,"CLASSIFICATION_TYPE":"U","NORAD_CAT_ID":64050,"ELEMENT_SET_NO":999,"REV_AT_EPOCH":4499,"BSTAR":0.00019408106,"MEAN_MOTION_DOT":4.036e-5,"MEAN_MOTION_DDOT":0}]
